{"version": 0.6, "generator": "Overpass API 0.7.62.4 2390de5a", "osm3s": {"timestamp_osm_base": "2025-01-30T11:30:01Z", "copyright": "The data included in this document is from www.openstreetmap.org. The data is made available under ODbL."}, "elements": [{"type": "node", "id": 279452413, "lat": 48.1883693, "lon": 16.3727303, "tags": {"addr:city": "Wien", "addr:country": "AT", "addr:housenumber": "62", "addr:postcode": "1040", "addr:street": "Favoritenstra\u00dfe", "brand": "Anker", "brand:wikidata": "Q557116", "brand:wikipedia": "de:Ankerbrot", "check_date": "2022-09-22", "indoor_seating": "yes", "internet_access": "wlan", "name": "Anker", "opening_hours": "Mo-Fr 06:00-13:00; Sa,Su 07:00-12:00; PH 07:00-12:00", "outdoor_seating": "no", "phone": "+43 (1) 504 85 65", "shop": "bakery", "website": "https://www.ankerbrot.at/", "wheelchair": "limited"}}, {"type": "node", "id": 311855684, "lat": 48.1962037, "lon": 16.3679635, "tags": {"addr:city": "Wien", "addr:country": "AT", "addr:housenumber": "2", "addr:postcode": "1040", "addr:street": "Favoritenstra\u00dfe", "brand": "Anker", "brand:wikidata": "Q557116", "brand:wikipedia": "de:Ankerbrot", "diet:vegan": "yes", "diet:vegetarian": "yes", "indoor_seating": "yes", "name": "Anker", "opening_hours": "Mo-Fr 06:30-17:00", "outdoor_seating": "no", "phone": "+4315049479", "shop": "bakery", "website": "https://www.ankerbrot.at/", "wheelchair": "no"}}, {"type": "node", "id": 354672230, "lat": 48.198102, "lon": 16.3674121, "tags": {"brand": "Anker", "brand:wikidata": "Q557116", "brand:wikipedia": "de:Ankerbrot", "indoor_seating": "yes", "name": "Anker", "opening_hours": "Mo-Fr 06:30-18:00", "outdoor_seating": "yes", "shop": "bakery", "smoking": "no", "wheelchair": "yes"}}, {"type": "node", "id": 476574911, "lat": 48.1904983, "lon": 16.3662294, "tags": {"addr:city": "Wien", "addr:country": "AT", "addr:housenumber": "64", "addr:postcode": "1040", "addr:street": "Wiedner Hauptstra\u00dfe", "brand": "Der Mann", "brand:wikidata": "Q74356398", "check_date:opening_hours": "2024-09-23", "level": "0", "name": "Der Mann", "opening_hours": "Mo-Fr 06:30-18:30; Sa-Su,PH 07:30-13:00", "phone": "+43 1 86699 9157", "shop": "bakery", "website": "https://www.dermann.at/filiale/wiedner-hauptstrasse-64/", "wheelchair": "yes"}}, {"type": "node", "id": 1731496159, "lat": 48.1888254, "lon": 16.3647368, "tags": {"addr:city": "Wien", "addr:country": "AT", "addr:housenumber": "82", "addr:postcode": "1040", "addr:street": "Wiedner Hauptstra\u00dfe", "check_date": "2023-06-02", "contact:phone": "+43 1 5815680", "name": "B\u00e4ckerei Nat\u00fcrlich Grimm", "opening_hours": "Mo-Fr 06:00-18:30; Sa 06:00-12:00", "shop": "bakery", "wheelchair": "no"}}, {"type": "node", "id": 2762283999, "lat": 48.1884454, "lon": 16.3767873, "tags": {"addr:city": "Wien", "addr:country": "AT", "addr:housenumber": "21", "addr:postcode": "1040", "addr:street": "Weyringergasse", "cuisine": "cake", "name": "15 s\u00fc\u00dfe Minuten", "opening_hours": "Mo-Fr 07:00-19:00; Sa,Su 07:00-16:00", "phone": "+43-664-7938044", "shop": "bakery", "website": "https://www.15suesseminuten.at/", "wheelchair": "no"}}, {"type": "node", "id": 2830986253, "lat": 48.185618, "lon": 16.369836, "tags": {"addr:city": "Wien", "addr:country": "AT", "addr:housenumber": "39", "addr:postcode": "1040", "addr:street": "Schelleingasse", "check_date": "2023-05-26", "drink:milk": "yes", "food:ice_cream": "packaged", "indoor_seating": "yes", "name": "Snack Pause", "opening_hours": "Mo-Fr 06:00-18:00; PH,Sa,Su 07:00-18:00", "outdoor_seating": "yes", "shop": "bakery", "surveillance": "indoor", "toilets": "no", "wheelchair": "limited"}}, {"type": "node", "id": 2869926771, "lat": 48.1892062, "lon": 16.3652147, "tags": {"addr:city": "Wien", "addr:country": "AT", "addr:housenumber": "78", "addr:postcode": "1040", "addr:street": "Wiedner Hauptstra\u00dfe", "brand": "Anker", "brand:wikidata": "Q557116", "brand:wikipedia": "de:Ankerbrot", "check_date": "2024-07-29", "diet:vegan": "yes", "diet:vegetarian": "yes", "indoor_seating": "no", "name": "Anker", "opening_hours": "Mo-Fr 06:00-13:00", "outdoor_seating": "no", "phone": "+4315815688", "shop": "bakery", "website": "https://www.ankerbrot.at/", "wheelchair": "no"}}, {"type": "node", "id": 3983831894, "lat": 48.185951, "lon": 16.3760804}, {"type": "node", "id": 3983841118, "lat": 48.1859217, "lon": 16.3760708}, {"type": "node", "id": 3989696800, "lat": 48.1862026, "lon": 16.3735904}, {"type": "node", "id": 3989696810, "lat": 48.1861565, "lon": 16.3736227}, {"type": "node", "id": 4130483201, "lat": 48.2008342, "lon": 16.3687633}, {"type": "node", "id": 4130584205, "lat": 48.2006381, "lon": 16.3686315}, {"type": "node", "id": 4130585708, "lat": 48.2006513, "lon": 16.3687242}, {"type": "node", "id": 4130589401, "lat": 48.2008568, "lon": 16.368678}, {"type": "node", "id": 4210457394, "lat": 48.1860315, "lon": 16.3761071}, {"type": "node", "id": 4210457699, "lat": 48.1860943, "lon": 16.3759422}, {"type": "node", "id": 4210504291, "lat": 48.1860828, "lon": 16.3759723}, {"type": "node", "id": 4210654999, "lat": 48.1862076, "lon": 16.3737686}, {"type": "node", "id": 4210656293, "lat": 48.1862305, "lon": 16.3736739}, {"type": "node", "id": 4215435098, "lat": 48.1859359, "lon": 16.3759538}, {"type": "node", "id": 4215458898, "lat": 48.1860468, "lon": 16.3757827}, {"type": "node", "id": 4218860293, "lat": 48.1859656, "lon": 16.3757799}, {"type": "node", "id": 4218860295, "lat": 48.1861009, "lon": 16.3759249}, {"type": "node", "id": 4218866494, "lat": 48.1860644, "lon": 16.3758288}, {"type": "node", "id": 4218873592, "lat": 48.1860447, "lon": 16.3758065}, {"type": "node", "id": 4218874391, "lat": 48.185997, "lon": 16.3756826}, {"type": "node", "id": 4218874589, "lat": 48.1859807, "lon": 16.3756772}, {"type": "node", "id": 4232443039, "lat": 48.1860789, "lon": 16.3759826}, {"type": "node", "id": 4301703436, "lat": 48.1959495, "lon": 16.3724908, "tags": {"addr:city": "Wien", "addr:country": "AT", "addr:housenumber": "22", "addr:postcode": "1040", "addr:street": "Argentinierstra\u00dfe", "name": "Caf\u00e9 Orange", "note": "B\u00e4ckerei, Caf\u00e9, Imbiss", "opening_hours": "Mo-Fr 07:00-20:00; Sa 07:00-16:00", "shop": "bakery"}}, {"type": "node", "id": 5569975187, "lat": 48.1952285, "lon": 16.3627467, "tags": {"addr:city": "Wien", "addr:country": "AT", "addr:housenumber": "3/1", "addr:postcode": "1040", "addr:street": "Heum\u00fchlgasse", "check_date:opening_hours": "2024-09-30", "email": "office@krusteundkrume.at", "name": "Kruste & Krume", "opening_hours": "We-Fr 09:00-18:00, Fr 10:00-18:00", "opening_hours:signed": "no", "phone": "+43 664 1475140", "shop": "bakery", "website": "https://krusteundkrume.at/"}}, {"type": "node", "id": 6334188737, "lat": 48.1955504, "lon": 16.3669057, "tags": {"addr:city": "Wien", "addr:country": "AT", "addr:housenumber": "30", "addr:postcode": "1040", "addr:street": "Wiedner Hauptstra\u00dfe", "name": "Felber", "opening_hours": "Mo-Fr 06:00-18:00; Sa,Su,PH 07:00-12:00", "operator": "Franz Felber & Co. GmbH", "shop": "bakery", "website": "https://www.felberbrot.at/", "wheelchair": "yes"}}, {"type": "node", "id": 10036128122, "lat": 48.1875061, "lon": 16.3732002, "tags": {"indoor_seating": "yes", "name": "Le Bakery", "outdoor_seating": "no", "shop": "bakery"}}, {"type": "node", "id": 11839343772, "lat": 48.185919, "lon": 16.37607}, {"type": "way", "id": 396140357, "nodes": [4215435098, 11839343772, 3983841118, 3983831894, 4210457394, 4232443039, 4210504291, 4210457699, 4218860295, 4218866494, 4215458898, 4215435098], "tags": {"indoor": "room", "indoor_seating": "yes", "level": "-1", "location": "underground", "name": "Heberer", "opening_hours": "Mo-Sa 05:00-21:00; PH,Su 06:00-21:00", "outdoor_seating": "no", "room": "shop", "shop": "bakery", "wheelchair": "yes"}}, {"type": "way", "id": 396144850, "nodes": [4210656293, 4210654999, 3989696810, 3989696800, 4210656293], "tags": {"brand": "Str\u00f6ck", "brand:wikidata": "Q2357607", "brand:wikipedia": "de:Str\u00f6ck-Brot", "check_date": "2023-07-10", "check_date:opening_hours": "2024-04-27", "indoor": "room", "level": "-2", "location": "underground", "name": "Str\u00f6ck", "opening_hours": "Mo-Fr 05:30-19:00; Sa 07:00-18:00; Su 07:00-19:00", "room": "shop", "shop": "bakery", "wheelchair": "yes"}}, {"type": "way", "id": 411400860, "nodes": [4130483201, 4130585708, 4130584205, 4130589401, 4130483201], "tags": {"brand": "Str\u00f6ck", "brand:wikidata": "Q2357607", "brand:wikipedia": "de:Str\u00f6ck-Brot", "indoor": "room", "indoor_seating": "yes", "level": "-1", "name": "Str\u00f6ck", "opening_hours": "Mo-Fr 05:30-19:00; Sa 07:00-17:00; Su 09:30-18:30", "outdoor_seating": "no", "room": "shop", "shop": "bakery", "wheelchair": "yes"}}, {"type": "way", "id": 422168957, "nodes": [4218874391, 4218874589, 4218860293, 4218873592, 4218874391], "tags": {"indoor": "room", "indoor_seating": "yes", "level": "-2", "location": "underground", "name": "Felber", "opening_hours": "Mo-Fr 05:00-21:00; Sa 06:00-18:00; Su,PH 06:00-18:00", "outdoor_seating": "no", "room": "shop", "shop": "bakery", "wheelchair": "yes"}}]}